start=new Date('2021-12-27T00:00:00.000Z').valueOf();
sats=[{"REF_FRAME":"TEME","BSTAR":"-0.00004547100000","CENTER_NAME":"EARTH","PERIAPSIS":"545.585","MEAN_MOTION":"15.06397653","OBJECT_NAME":"STARLINK-2698","TLE_LINE2":"2 48458  53.0555 232.0983 0002362  69.5624 290.5618 15.06397653 36090","OBJECT_TYPE":"PAYLOAD","MEAN_MOTION_DOT":"-0.00000959","SEMIMAJOR_AXIS":"6925.356","RA_OF_ASC_NODE":"232.0983","GP_ID":"192525451","NORAD_CAT_ID":"48458","ECCENTRICITY":"0.00023620","OBJECT_ID":"2021-040AG","DECAY_DATE":null,"ARG_OF_PERICENTER":"69.5624","PERIOD":"95.592","LAUNCH_DATE":"2021-05-09","MEAN_ANOMALY":"290.5618","SITE":"AFETR","APOAPSIS":"548.857","RCS_SIZE":"LARGE","INCLINATION":"53.0555","MEAN_MOTION_DDOT":"0.0000000000000","REV_AT_EPOCH":"3609","EPHEMERIS_TYPE":"0","EPOCH":"2021-12-26T21:25:13.871424","ELEMENT_SET_NO":"999","TIME_SYSTEM":"UTC","TLE_LINE1":"1 48458U 21040AG  21360.89252166 -.00000959  00000-0 -45471-4 0  9997","CLASSIFICATION_TYPE":"U","FILE":"3251846","MEAN_ELEMENT_THEORY":"SGP4","COUNTRY_CODE":"US"},{"DECAY_DATE":null,"ARG_OF_PERICENTER":"65.6272","ECCENTRICITY":"0.00022170","OBJECT_ID":"2021-040AH","LAUNCH_DATE":"2021-05-09","PERIOD":"95.592","RCS_SIZE":"LARGE","INCLINATION":"53.0551","MEAN_MOTION_DDOT":"0.0000000000000","SITE":"AFETR","APOAPSIS":"548.723","MEAN_ANOMALY":"294.4948","COUNTRY_CODE":"US","TIME_SYSTEM":"UTC","FILE":"3251846","TLE_LINE1":"1 48459U 21040AH  21360.92568261  .00001103  00000-0  92954-4 0  9996","CLASSIFICATION_TYPE":"U","MEAN_ELEMENT_THEORY":"SGP4","EPOCH":"2021-12-26T22:12:58.977504","EPHEMERIS_TYPE":"0","ELEMENT_SET_NO":"999","REV_AT_EPOCH":"3539","BSTAR":"0.00009295400000","CENTER_NAME":"EARTH","REF_FRAME":"TEME","OBJECT_NAME":"STARLINK-2579","MEAN_MOTION":"15.06408457","PERIAPSIS":"545.652","SEMIMAJOR_AXIS":"6925.323","OBJECT_TYPE":"PAYLOAD","MEAN_MOTION_DOT":"0.00001103","TLE_LINE2":"2 48459  53.0551 231.9529 0002217  65.6272 294.4948 15.06408457 35392","NORAD_CAT_ID":"48459","GP_ID":"192524201","RA_OF_ASC_NODE":"231.9529"},{"BSTAR":"0.00007612500000","CENTER_NAME":"EARTH","REF_FRAME":"TEME","MEAN_MOTION":"15.06395283","OBJECT_NAME":"STARLINK-2582","PERIAPSIS":"545.824","SEMIMAJOR_AXIS":"6925.363","MEAN_MOTION_DOT":"0.00000852","OBJECT_TYPE":"PAYLOAD","TLE_LINE2":"2 48460  53.0538 232.0120 0002027  68.5988 291.5217 15.06395283 35897","NORAD_CAT_ID":"48460","GP_ID":"192525453","RA_OF_ASC_NODE":"232.0120","ARG_OF_PERICENTER":"68.5988","DECAY_DATE":null,"OBJECT_ID":"2021-040AJ","ECCENTRICITY":"0.00020270","LAUNCH_DATE":"2021-05-09","PERIOD":"95.592","MEAN_MOTION_DDOT":"0.0000000000000","RCS_SIZE":"LARGE","INCLINATION":"53.0538","APOAPSIS":"548.632","SITE":"AFETR","MEAN_ANOMALY":"291.5217","COUNTRY_CODE":"US","TLE_LINE1":"1 48460U 21040AJ  21360.91189233  .00000852  00000-0  76125-4 0  9997","FILE":"3251846","MEAN_ELEMENT_THEORY":"SGP4","CLASSIFICATION_TYPE":"U","TIME_SYSTEM":"UTC","ELEMENT_SET_NO":"999","EPOCH":"2021-12-26T21:53:07.497312","EPHEMERIS_TYPE":"0","REV_AT_EPOCH":"3589"},{"MEAN_MOTION_DDOT":"0.0000000000000","RCS_SIZE":"LARGE","INCLINATION":"53.0537","MEAN_ANOMALY":"296.3693","APOAPSIS":"548.448","SITE":"AFETR","TLE_LINE1":"1 48461U 21040AK  21360.92663790  .00004638  00000-0  33007-3 0  9991","FILE":"3251846","CLASSIFICATION_TYPE":"U","MEAN_ELEMENT_THEORY":"SGP4","TIME_SYSTEM":"UTC","COUNTRY_CODE":"US","REV_AT_EPOCH":"3539","ELEMENT_SET_NO":"999","EPOCH":"2021-12-26T22:14:21.514560","EPHEMERIS_TYPE":"0","ARG_OF_PERICENTER":"63.7479","DECAY_DATE":null,"ECCENTRICITY":"0.00017840","OBJECT_ID":"2021-040AK","LAUNCH_DATE":"2021-05-09","PERIOD":"95.592","SEMIMAJOR_AXIS":"6925.348","TLE_LINE2":"2 48461  53.0537 231.9408 0001784  63.7479 296.3693 15.06400225 35394","MEAN_MOTION_DOT":"0.00004638","OBJECT_TYPE":"PAYLOAD","NORAD_CAT_ID":"48461","RA_OF_ASC_NODE":"231.9408","GP_ID":"192525203","BSTAR":"0.00033007000000","CENTER_NAME":"EARTH","REF_FRAME":"TEME","PERIAPSIS":"545.977","MEAN_MOTION":"15.06400225","OBJECT_NAME":"STARLINK-2693"},{"REF_FRAME":"TEME","BSTAR":"0.00004928800000","CENTER_NAME":"EARTH","PERIAPSIS":"545.490","MEAN_MOTION":"15.06398246","OBJECT_NAME":"STARLINK-2683","TLE_LINE2":"2 48462  53.0523 237.1365 0002496  65.2381 294.8868 15.06398246 35318","OBJECT_TYPE":"PAYLOAD","MEAN_MOTION_DOT":"0.00000452","SEMIMAJOR_AXIS":"6925.354","RA_OF_ASC_NODE":"237.1365","GP_ID":"192525952","NORAD_CAT_ID":"48462","OBJECT_ID":"2021-040AL","ECCENTRICITY":"0.00024960","DECAY_DATE":null,"ARG_OF_PERICENTER":"65.2381","PERIOD":"95.592","LAUNCH_DATE":"2021-05-09","MEAN_ANOMALY":"294.8868","SITE":"AFETR","APOAPSIS":"548.948","RCS_SIZE":"LARGE","INCLINATION":"53.0523","MEAN_MOTION_DDOT":"0.0000000000000","REV_AT_EPOCH":"3531","EPHEMERIS_TYPE":"0","EPOCH":"2021-12-26T21:11:17.417472","ELEMENT_SET_NO":"999","TIME_SYSTEM":"UTC","CLASSIFICATION_TYPE":"U","TLE_LINE1":"1 48462U 21040AL  21360.88284048  .00000452  00000-0  49288-4 0  9991","FILE":"3251846","MEAN_ELEMENT_THEORY":"SGP4","COUNTRY_CODE":"US"},{"LAUNCH_DATE":"2021-05-09","PERIOD":"95.592","DECAY_DATE":null,"ARG_OF_PERICENTER":"66.8168","ECCENTRICITY":"0.00021720","OBJECT_ID":"2021-040AM","COUNTRY_CODE":"US","TIME_SYSTEM":"UTC","TLE_LINE1":"1 48463U 21040AM  21360.91601877 -.00000560  00000-0 -18702-4 0  9998","FILE":"3251846","MEAN_ELEMENT_THEORY":"SGP4","CLASSIFICATION_TYPE":"U","EPOCH":"2021-12-26T21:59:04.021728","EPHEMERIS_TYPE":"0","ELEMENT_SET_NO":"999","REV_AT_EPOCH":"3532","RCS_SIZE":"LARGE","INCLINATION":"53.0542","MEAN_MOTION_DDOT":"0.0000000000000","SITE":"AFETR","APOAPSIS":"548.710","MEAN_ANOMALY":"293.3050","OBJECT_NAME":"STARLINK-2689","MEAN_MOTION":"15.06402558","PERIAPSIS":"545.702","BSTAR":"-0.00001870200000","CENTER_NAME":"EARTH","REF_FRAME":"TEME","NORAD_CAT_ID":"48463","GP_ID":"192524702","RA_OF_ASC_NODE":"237.0032","SEMIMAJOR_AXIS":"6925.341","OBJECT_TYPE":"PAYLOAD","MEAN_MOTION_DOT":"-0.00000560","TLE_LINE2":"2 48463  53.0542 237.0032 0002172  66.8168 293.3050 15.06402558 35321"},{"LAUNCH_DATE":"2021-05-09","PERIOD":"95.593","ARG_OF_PERICENTER":"64.6281","DECAY_DATE":null,"OBJECT_ID":"2021-040AN","ECCENTRICITY":"0.00021810","TLE_LINE1":"1 48464U 21040AN  21360.89484548 -.00000779  00000-0 -33415-4 0  9990","FILE":"3251846","CLASSIFICATION_TYPE":"U","MEAN_ELEMENT_THEORY":"SGP4","TIME_SYSTEM":"UTC","COUNTRY_CODE":"US","REV_AT_EPOCH":"3531","ELEMENT_SET_NO":"999","EPHEMERIS_TYPE":"0","EPOCH":"2021-12-26T21:28:34.649472","MEAN_MOTION_DDOT":"0.0000000000000","RCS_SIZE":"LARGE","INCLINATION":"53.0555","MEAN_ANOMALY":"295.4934","APOAPSIS":"548.766","SITE":"AFETR","PERIAPSIS":"545.745","MEAN_MOTION":"15.06386215","OBJECT_NAME":"STARLINK-2686","BSTAR":"-0.00003341500000","CENTER_NAME":"EARTH","REF_FRAME":"TEME","NORAD_CAT_ID":"48464","RA_OF_ASC_NODE":"237.0963","GP_ID":"192524953","SEMIMAJOR_AXIS":"6925.391","TLE_LINE2":"2 48464  53.0555 237.0963 0002181  64.6281 295.4934 15.06386215 35315","MEAN_MOTION_DOT":"-0.00000779","OBJECT_TYPE":"PAYLOAD"},{"MEAN_ANOMALY":"294.3737","APOAPSIS":"548.843","SITE":"AFETR","MEAN_MOTION_DDOT":"0.0000000000000","INCLINATION":"53.0553","RCS_SIZE":"LARGE","REV_AT_EPOCH":"3532","ELEMENT_SET_NO":"999","EPHEMERIS_TYPE":"0","EPOCH":"2021-12-26T21:44:30.394176","FILE":"3251846","TLE_LINE1":"1 48465U 21040AP  21360.90590734  .00003565  00000-0  25812-3 0  9993","CLASSIFICATION_TYPE":"U","MEAN_ELEMENT_THEORY":"SGP4","TIME_SYSTEM":"UTC","COUNTRY_CODE":"US","OBJECT_ID":"2021-040AP","ECCENTRICITY":"0.00023460","ARG_OF_PERICENTER":"65.7497","DECAY_DATE":null,"PERIOD":"95.592","LAUNCH_DATE":"2021-05-09","TLE_LINE2":"2 48465  53.0553 237.0391 0002346  65.7497 294.3737 15.06398319 35321","MEAN_MOTION_DOT":"0.00003565","OBJECT_TYPE":"PAYLOAD","SEMIMAJOR_AXIS":"6925.354","RA_OF_ASC_NODE":"237.0391","GP_ID":"192525704","NORAD_CAT_ID":"48465","REF_FRAME":"TEME","CENTER_NAME":"EARTH","BSTAR":"0.00025812000000","PERIAPSIS":"545.594","OBJECT_NAME":"STARLINK-2681","MEAN_MOTION":"15.06398319"},{"PERIOD":"95.592","LAUNCH_DATE":"2021-05-09","OBJECT_ID":"2021-040AQ","ECCENTRICITY":"0.00020020","DECAY_DATE":null,"ARG_OF_PERICENTER":"65.0731","REV_AT_EPOCH":"3532","EPOCH":"2021-12-26T21:23:16.503936","EPHEMERIS_TYPE":"0","ELEMENT_SET_NO":"999","TIME_SYSTEM":"UTC","CLASSIFICATION_TYPE":"U","TLE_LINE1":"1 48466U 21040AQ  21360.89116324  .00002684  00000-0  19900-3 0  9993","FILE":"3251846","MEAN_ELEMENT_THEORY":"SGP4","COUNTRY_CODE":"US","MEAN_ANOMALY":"295.0466","SITE":"AFETR","APOAPSIS":"548.605","INCLINATION":"53.0537","RCS_SIZE":"LARGE","MEAN_MOTION_DDOT":"0.0000000000000","PERIAPSIS":"545.832","OBJECT_NAME":"STARLINK-2687","MEAN_MOTION":"15.06398480","REF_FRAME":"TEME","BSTAR":"0.00019900000000","CENTER_NAME":"EARTH","RA_OF_ASC_NODE":"237.1113","GP_ID":"192525452","NORAD_CAT_ID":"48466","TLE_LINE2":"2 48466  53.0537 237.1113 0002002  65.0731 295.0466 15.06398480 35326","OBJECT_TYPE":"PAYLOAD","MEAN_MOTION_DOT":"0.00002684","SEMIMAJOR_AXIS":"6925.353"},{"PERIOD":"95.593","LAUNCH_DATE":"2021-05-09","ECCENTRICITY":"0.00020860","OBJECT_ID":"2021-040AR","DECAY_DATE":null,"ARG_OF_PERICENTER":"68.1063","EPHEMERIS_TYPE":"0","EPOCH":"2021-12-26T22:00:26.016192","ELEMENT_SET_NO":"999","REV_AT_EPOCH":"3532","COUNTRY_CODE":"US","TIME_SYSTEM":"UTC","TLE_LINE1":"1 48467U 21040AR  21360.91696778  .00001071  00000-0  90828-4 0  9991","MEAN_ELEMENT_THEORY":"SGP4","FILE":"3251846","CLASSIFICATION_TYPE":"U","SITE":"AFETR","APOAPSIS":"548.677","MEAN_ANOMALY":"292.0148","INCLINATION":"53.0555","RCS_SIZE":"LARGE","MEAN_MOTION_DDOT":"0.0000000000000","OBJECT_NAME":"STARLINK-2659","MEAN_MOTION":"15.06393833","PERIAPSIS":"545.788","REF_FRAME":"TEME","BSTAR":"0.00009082800000","CENTER_NAME":"EARTH","GP_ID":"192526430","RA_OF_ASC_NODE":"236.9960","NORAD_CAT_ID":"48467","OBJECT_TYPE":"PAYLOAD","MEAN_MOTION_DOT":"0.00001071","TLE_LINE2":"2 48467  53.0555 236.9960 0002086  68.1063 292.0148 15.06393833 35329","SEMIMAJOR_AXIS":"6925.367"}];
